{
  "norad_id": 67553,
  "name": "STARLINK-36569",
  "history": [
    {
      "epoch": "2026-03-28T22:12:58.443552Z",
      "apogee_km": 345.31677047437006,
      "perigee_km": 342.17832257959617,
      "latitude_deg": 6.474852543963594e-05,
      "longitude_deg": 174.2559527084784,
      "height_km": 347.42241797892484,
      "semi_major_axis_km": 6721.884546526982,
      "eccentricity": 0.00023345,
      "inclination_deg": 97.2862,
      "raan_deg": 333.8386,
      "arg_perigee_deg": 108.9637,
      "mean_anomaly_deg": 251.1882,
      "mean_motion_rev_day": 15.75310576
    },
    {
      "epoch": "2026-03-29T04:18:53.932032Z",
      "apogee_km": 344.70938308268705,
      "perigee_km": 342.8823617279677,
      "latitude_deg": 3.395046617937438e-05,
      "longitude_deg": 82.7908880555016,
      "height_km": 346.68782411288373,
      "semi_major_axis_km": 6721.932872405327,
      "eccentricity": 0.0001359,
      "inclination_deg": 97.286,
      "raan_deg": 334.1052,
      "arg_perigee_deg": 72.5233,
      "mean_anomaly_deg": 287.6181,
      "mean_motion_rev_day": 15.75293588
    },
    {
      "epoch": "2026-03-30T04:42:34.494912Z",
      "apogee_km": 345.06370807344774,
      "perigee_km": 342.8870880789509,
      "latitude_deg": -8.748662609130385e-06,
      "longitude_deg": 76.93623147174917,
      "height_km": 347.4707276322837,
      "semi_major_axis_km": 6722.1123980761995,
      "eccentricity": 0.0001619,
      "inclination_deg": 97.2844,
      "raan_deg": 335.1714,
      "arg_perigee_deg": 107.6148,
      "mean_anomaly_deg": 252.5294,
      "mean_motion_rev_day": 15.75230482
    },
    {
      "epoch": "2026-03-30T04:42:34.495776Z",
      "apogee_km": 345.0635736312006,
      "perigee_km": 342.8872225211999,
      "latitude_deg": -6.56653649846124e-06,
      "longitude_deg": 76.93622758452602,
      "height_km": 347.4706869379173,
      "semi_major_axis_km": 6722.1123980761995,
      "eccentricity": 0.00016188,
      "inclination_deg": 97.2844,
      "raan_deg": 335.1714,
      "arg_perigee_deg": 107.6148,
      "mean_anomaly_deg": 252.5294,
      "mean_motion_rev_day": 15.75230482
    },
    {
      "epoch": "2026-03-31T09:40:42.032928Z",
      "apogee_km": 345.3500490591832,
      "perigee_km": 342.51199194092806,
      "latitude_deg": 4.517292049213588e-06,
      "longitude_deg": 2.4821181586247976,
      "height_km": 347.05356597504607,
      "semi_major_axis_km": 6722.068020500055,
      "eccentricity": 0.0002111,
      "inclination_deg": 97.2857,
      "raan_deg": 336.4384,
      "arg_perigee_deg": 88.2894,
      "mean_anomaly_deg": 271.8613,
      "mean_motion_rev_day": 15.75246081
    },
    {
      "epoch": "2026-04-01T20:44:43.327104Z",
      "apogee_km": 345.01374670499445,
      "perigee_km": 342.0118579032851,
      "latitude_deg": 4.391406471525788e-05,
      "longitude_deg": -163.4300289375746,
      "height_km": 347.73999116555126,
      "semi_major_axis_km": 6721.6498023041395,
      "eccentricity": 0.0002233,
      "inclination_deg": 97.2862,
      "raan_deg": 337.9718,
      "arg_perigee_deg": 134.9787,
      "mean_anomaly_deg": 225.166,
      "mean_motion_rev_day": 15.753931
    },
    {
      "epoch": "2026-04-02T10:28:02.972064Z",
      "apogee_km": 345.9335109525746,
      "perigee_km": 341.51845690746904,
      "latitude_deg": -4.6638245926127156e-05,
      "longitude_deg": -9.226118545454852,
      "height_km": 346.01441024406546,
      "semi_major_axis_km": 6721.862983930021,
      "eccentricity": 0.00032841,
      "inclination_deg": 97.2851,
      "raan_deg": 338.5711,
      "arg_perigee_deg": 66.6554,
      "mean_anomaly_deg": 293.5056,
      "mean_motion_rev_day": 15.75318156
    },
    {
      "epoch": "2026-04-03T15:26:10.396032Z",
      "apogee_km": 345.1558369068707,
      "perigee_km": 342.3528082253606,
      "latitude_deg": 2.68100614089123e-05,
      "longitude_deg": -83.6798641570015,
      "height_km": 347.4887769652967,
      "semi_major_axis_km": 6721.891322566115,
      "eccentricity": 0.0002085,
      "inclination_deg": 97.2837,
      "raan_deg": 339.838,
      "arg_perigee_deg": 113.9492,
      "mean_anomaly_deg": 246.1992,
      "mean_motion_rev_day": 15.75308194
    },
    {
      "epoch": "2026-04-04T18:52:48.283680Z",
      "apogee_km": 345.371064372599,
      "perigee_km": 342.77629105100186,
      "latitude_deg": 1.8405394887911284e-05,
      "longitude_deg": -135.2647082497676,
      "height_km": 346.6253330612248,
      "semi_major_axis_km": 6722.2106777118,
      "eccentricity": 0.000193,
      "inclination_deg": 97.2854,
      "raan_deg": 341.0381,
      "arg_perigee_deg": 61.7655,
      "mean_anomaly_deg": 298.3805,
      "mean_motion_rev_day": 15.75195937
    }
  ]
}